{
  "last_updated": "2026-01-09T12:49:35Z",
  "videos": [
    {
      "id": "udxNIr5PQlw",
      "title": "معترضان در سعادت‌آباد با روشن کردن آتش به اعتراضات شبانه ادامه می‌دهند",
      "title_english": "",
      "location": {
        "name_fa": "بانه",
        "name_en": "Baneh",
        "city": "Baneh",
        "lat": 35.9975,
        "lng": 45.8853
      },
      "crowd_size": "large",
      "event_types": [
        "fire"
      ],
      "thumbnail": "https://img.youtube.com/vi/udxNIr5PQlw/mqdefault.jpg",
      "url": "https://www.youtube.com/watch?v=udxNIr5PQlw",
      "uploaded": "",
      "source": "Iran International"
    },
    {
      "id": "d68jRQXqlYg",
      "title": "طنین مرگ بر دیکتاتور در زنجان",
      "title_english": "",
      "location": {
        "name_fa": "زنجان",
        "name_en": "Zanjan",
        "city": "Zanjan",
        "lat": 36.6736,
        "lng": 48.4787
      },
      "crowd_size": "large",
      "event_types": [
        "chanting"
      ],
      "thumbnail": "https://img.youtube.com/vi/d68jRQXqlYg/mqdefault.jpg",
      "url": "https://www.youtube.com/watch?v=d68jRQXqlYg",
      "uploaded": "",
      "source": "Iran International"
    },
    {
      "id": "YSvOEmAYF2g",
      "title": "معترضان در احمدآباد مشهد خودروی سرکوب‌گران را به آتش کشیدند",
      "title_english": "",
      "location": {
        "name_fa": "مشهد",
        "name_en": "Mashhad",
        "city": "Mashhad",
        "lat": 36.2605,
        "lng": 59.6168
      },
      "crowd_size": "large",
      "event_types": [
        "repression",
        "fire"
      ],
      "thumbnail": "https://img.youtube.com/vi/YSvOEmAYF2g/mqdefault.jpg",
      "url": "https://www.youtube.com/watch?v=YSvOEmAYF2g",
      "uploaded": "",
      "source": "Iran International"
    },
    {
      "id": "5z75wHtj_h8",
      "title": "معترضان در شهرهای ایران: پهلوی بر می‌گرده",
      "title_english": "",
      "location": {
        "name_fa": "ایران",
        "name_en": "Iran",
        "city": "Iran",
        "lat": 32.4279,
        "lng": 53.688
      },
      "crowd_size": "large",
      "event_types": [
        "protest"
      ],
      "thumbnail": "https://img.youtube.com/vi/5z75wHtj_h8/mqdefault.jpg",
      "url": "https://www.youtube.com/watch?v=5z75wHtj_h8",
      "uploaded": "",
      "source": "Iran International"
    },
    {
      "id": "AGr6F_KB4bg",
      "title": "شعار «جاوید شاه» معترضان در زادگاه خمینی",
      "title_english": "",
      "location": null,
      "crowd_size": "large",
      "event_types": [
        "chanting"
      ],
      "thumbnail": "https://img.youtube.com/vi/AGr6F_KB4bg/mqdefault.jpg",
      "url": "https://www.youtube.com/watch?v=AGr6F_KB4bg",
      "uploaded": "",
      "source": "Iran International"
    },
    {
      "id": "FlptA3P4w5E",
      "title": "معترضان در کیش شعار آزادی و جاوید شاه دادند",
      "title_english": "",
      "location": {
        "name_fa": "آزادی",
        "name_en": "Azadi Square",
        "city": "Tehran",
        "lat": 35.6997,
        "lng": 51.338
      },
      "crowd_size": "large",
      "event_types": [
        "chanting"
      ],
      "thumbnail": "https://img.youtube.com/vi/FlptA3P4w5E/mqdefault.jpg",
      "url": "https://www.youtube.com/watch?v=FlptA3P4w5E",
      "uploaded": "",
      "source": "Iran International"
    },
    {
      "id": "vJDMBJUQ9kw",
      "title": "حضور پر تعداد مردم معترض در تهران",
      "title_english": "",
      "location": {
        "name_fa": "تهران",
        "name_en": "Tehran",
        "city": "Tehran",
        "lat": 35.6892,
        "lng": 51.389
      },
      "crowd_size": "large",
      "event_types": [
        "protest"
      ],
      "thumbnail": "https://img.youtube.com/vi/vJDMBJUQ9kw/mqdefault.jpg",
      "url": "https://www.youtube.com/watch?v=vJDMBJUQ9kw",
      "uploaded": "",
      "source": "Iran International"
    },
    {
      "id": "R4Zr2e0lidg",
      "title": "خیل عظیم معترضان در هفت‌حوض تهران: «امسال سال خونه، سیدعلی سرنگونه»",
      "title_english": "",
      "location": {
        "name_fa": "تهران",
        "name_en": "Tehran",
        "city": "Tehran",
        "lat": 35.6892,
        "lng": 51.389
      },
      "crowd_size": "very_large",
      "event_types": [
        "repression",
        "victory"
      ],
      "thumbnail": "https://img.youtube.com/vi/R4Zr2e0lidg/mqdefault.jpg",
      "url": "https://www.youtube.com/watch?v=R4Zr2e0lidg",
      "uploaded": "",
      "source": "Iran International"
    },
    {
      "id": "xSjq5LfRd7o",
      "title": "معترضان مسجد سلیمان در مقابل سرکوب‌گران: «نترسید، ما همه با هم هستیم»",
      "title_english": "",
      "location": null,
      "crowd_size": "large",
      "event_types": [
        "repression"
      ],
      "thumbnail": "https://img.youtube.com/vi/xSjq5LfRd7o/mqdefault.jpg",
      "url": "https://www.youtube.com/watch?v=xSjq5LfRd7o",
      "uploaded": "",
      "source": "Iran International"
    },
    {
      "id": "HLZ7t81CS-M",
      "title": "حضور میلیونی مردم ایران در خیابان‌ها در پاسخ به فراخوان شاهزاده رضا پهلوی",
      "title_english": "",
      "location": {
        "name_fa": "ایران",
        "name_en": "Iran",
        "city": "Iran",
        "lat": 32.4279,
        "lng": 53.688
      },
      "crowd_size": "very_large",
      "event_types": [
        "victory"
      ],
      "thumbnail": "https://img.youtube.com/vi/HLZ7t81CS-M/mqdefault.jpg",
      "url": "https://www.youtube.com/watch?v=HLZ7t81CS-M",
      "uploaded": "",
      "source": "Iran International"
    },
    {
      "id": "BEluFuZGJ-A",
      "title": "معترضان در تبریز: «مرگ بر دیکتاتور»",
      "title_english": "",
      "location": {
        "name_fa": "تبریز",
        "name_en": "Tabriz",
        "city": "Tabriz",
        "lat": 38.08,
        "lng": 46.2919
      },
      "crowd_size": "large",
      "event_types": [
        "chanting"
      ],
      "thumbnail": "https://img.youtube.com/vi/BEluFuZGJ-A/mqdefault.jpg",
      "url": "https://www.youtube.com/watch?v=BEluFuZGJ-A",
      "uploaded": "",
      "source": "Iran International"
    },
    {
      "id": "8OhWIQpk6QY",
      "title": "معترضان در خمین شعارهای «جاوید شاه» و «این آخرین نبرده، پهلوی برمی‌گرده» سر دادند",
      "title_english": "",
      "location": null,
      "crowd_size": "large",
      "event_types": [
        "chanting"
      ],
      "thumbnail": "https://img.youtube.com/vi/8OhWIQpk6QY/mqdefault.jpg",
      "url": "https://www.youtube.com/watch?v=8OhWIQpk6QY",
      "uploaded": "",
      "source": "Iran International"
    },
    {
      "id": "eBNFBoqlw1c",
      "title": "معترضان در کرمان: «نترسید نترسید، ما همه با هم هستیم»",
      "title_english": "",
      "location": {
        "name_fa": "کرمان",
        "name_en": "Kerman",
        "city": "Kerman",
        "lat": 30.2839,
        "lng": 57.0834
      },
      "crowd_size": "large",
      "event_types": [
        "protest"
      ],
      "thumbnail": "https://img.youtube.com/vi/eBNFBoqlw1c/mqdefault.jpg",
      "url": "https://www.youtube.com/watch?v=eBNFBoqlw1c",
      "uploaded": "",
      "source": "Iran International"
    },
    {
      "id": "om_t_EAVM9A",
      "title": "خیل عظیم معترضان در ساری",
      "title_english": "",
      "location": {
        "name_fa": "ساری",
        "name_en": "Sari",
        "city": "Sari",
        "lat": 36.5633,
        "lng": 53.0601
      },
      "crowd_size": "very_large",
      "event_types": [
        "victory"
      ],
      "thumbnail": "https://img.youtube.com/vi/om_t_EAVM9A/mqdefault.jpg",
      "url": "https://www.youtube.com/watch?v=om_t_EAVM9A",
      "uploaded": "",
      "source": "Iran International"
    },
    {
      "id": "a7U4PkbRhd0",
      "title": "راهپیمایی در خیابان سنگ‌فرش تبریز همراه با فریاد «جاوید شاه»",
      "title_english": "",
      "location": {
        "name_fa": "تبریز",
        "name_en": "Tabriz",
        "city": "Tabriz",
        "lat": 38.08,
        "lng": 46.2919
      },
      "crowd_size": "large",
      "event_types": [
        "march",
        "chanting"
      ],
      "thumbnail": "https://img.youtube.com/vi/a7U4PkbRhd0/mqdefault.jpg",
      "url": "https://www.youtube.com/watch?v=a7U4PkbRhd0",
      "uploaded": "",
      "source": "Iran International"
    },
    {
      "id": "puloZ9WwxsM",
      "title": "معترضان در تبریز شعار «مرگ بر دیکتاتور» سر دادند",
      "title_english": "",
      "location": {
        "name_fa": "تبریز",
        "name_en": "Tabriz",
        "city": "Tabriz",
        "lat": 38.08,
        "lng": 46.2919
      },
      "crowd_size": "large",
      "event_types": [
        "chanting"
      ],
      "thumbnail": "https://img.youtube.com/vi/puloZ9WwxsM/mqdefault.jpg",
      "url": "https://www.youtube.com/watch?v=puloZ9WwxsM",
      "uploaded": "",
      "source": "Iran International"
    },
    {
      "id": "kvWGOsNJJ8I",
      "title": "درخواست کمک یک معترض در مشهد از ترامپ و نتانیاهو",
      "title_english": "",
      "location": {
        "name_fa": "مشهد",
        "name_en": "Mashhad",
        "city": "Mashhad",
        "lat": 36.2605,
        "lng": 59.6168
      },
      "crowd_size": "large",
      "event_types": [
        "protest"
      ],
      "thumbnail": "https://img.youtube.com/vi/kvWGOsNJJ8I/mqdefault.jpg",
      "url": "https://www.youtube.com/watch?v=kvWGOsNJJ8I",
      "uploaded": "",
      "source": "Iran International"
    },
    {
      "id": "scdr9pkN4N8",
      "title": "معترضان در مشهد شعار «این آخرین نبرده پهلوی بر می‌گرده» سر دادند",
      "title_english": "",
      "location": {
        "name_fa": "مشهد",
        "name_en": "Mashhad",
        "city": "Mashhad",
        "lat": 36.2605,
        "lng": 59.6168
      },
      "crowd_size": "large",
      "event_types": [
        "chanting"
      ],
      "thumbnail": "https://img.youtube.com/vi/scdr9pkN4N8/mqdefault.jpg",
      "url": "https://www.youtube.com/watch?v=scdr9pkN4N8",
      "uploaded": "",
      "source": "Iran International"
    },
    {
      "id": "x2nmwSFxKIU",
      "title": "شعار «جاوید شاه» معترضان در صادقیه تهران",
      "title_english": "",
      "location": {
        "name_fa": "صادقیه",
        "name_en": "Sadeghiyeh",
        "city": "Tehran",
        "lat": 35.72,
        "lng": 51.328
      },
      "crowd_size": "large",
      "event_types": [
        "chanting"
      ],
      "thumbnail": "https://img.youtube.com/vi/x2nmwSFxKIU/mqdefault.jpg",
      "url": "https://www.youtube.com/watch?v=x2nmwSFxKIU",
      "uploaded": "",
      "source": "Iran International"
    },
    {
      "id": "CWsZj3LCGwg",
      "title": "آتش گرفتن موتورسیکلت‌های سرکوبگران در آریاشهر",
      "title_english": "",
      "location": null,
      "crowd_size": "large",
      "event_types": [
        "repression",
        "fire"
      ],
      "thumbnail": "https://img.youtube.com/vi/CWsZj3LCGwg/mqdefault.jpg",
      "url": "https://www.youtube.com/watch?v=CWsZj3LCGwg",
      "uploaded": "",
      "source": "Iran International"
    },
    {
      "id": "X3hbKPtHq7o",
      "title": "معترضان در انزلی در حمایت از فراخوان شاهزاده به خیابان آمدند",
      "title_english": "",
      "location": {
        "name_fa": "انزلی",
        "name_en": "Anzali",
        "city": "Anzali",
        "lat": 37.4728,
        "lng": 49.4628
      },
      "crowd_size": "large",
      "event_types": [
        "march"
      ],
      "thumbnail": "https://img.youtube.com/vi/X3hbKPtHq7o/mqdefault.jpg",
      "url": "https://www.youtube.com/watch?v=X3hbKPtHq7o",
      "uploaded": "",
      "source": "Iran International"
    },
    {
      "id": "01r5WnrYicE",
      "title": "جمعیت انبوه معترضان در میدان هفت‌حوض تهران",
      "title_english": "",
      "location": {
        "name_fa": "تهران",
        "name_en": "Tehran",
        "city": "Tehran",
        "lat": 35.6892,
        "lng": 51.389
      },
      "crowd_size": "very_large",
      "event_types": [
        "victory"
      ],
      "thumbnail": "https://img.youtube.com/vi/01r5WnrYicE/mqdefault.jpg",
      "url": "https://www.youtube.com/watch?v=01r5WnrYicE",
      "uploaded": "",
      "source": "Iran International"
    },
    {
      "id": "ZUF6vZ0Bi60",
      "title": "معترضان در گرگان ساختمان فرمانداری را به آتش کشیدند",
      "title_english": "",
      "location": {
        "name_fa": "گرگان",
        "name_en": "Gorgan",
        "city": "Gorgan",
        "lat": 36.8427,
        "lng": 54.4353
      },
      "crowd_size": "large",
      "event_types": [
        "fire"
      ],
      "thumbnail": "https://img.youtube.com/vi/ZUF6vZ0Bi60/mqdefault.jpg",
      "url": "https://www.youtube.com/watch?v=ZUF6vZ0Bi60",
      "uploaded": "",
      "source": "Iran International"
    },
    {
      "id": "kkZ4x1baLec",
      "title": "معترضان در رامسر: جاوید شاه",
      "title_english": "",
      "location": {
        "name_fa": "رامسر",
        "name_en": "Ramsar",
        "city": "Ramsar",
        "lat": 36.9047,
        "lng": 50.66
      },
      "crowd_size": "large",
      "event_types": [
        "chanting"
      ],
      "thumbnail": "https://img.youtube.com/vi/kkZ4x1baLec/mqdefault.jpg",
      "url": "https://www.youtube.com/watch?v=kkZ4x1baLec",
      "uploaded": "",
      "source": "Iran International"
    },
    {
      "id": "c-bMoCkuoTg",
      "title": "معترضان در نظرآباد کرج شعار «سیدعلی سرنگونه» سر دادند",
      "title_english": "",
      "location": {
        "name_fa": "کرج",
        "name_en": "Karaj",
        "city": "Karaj",
        "lat": 35.84,
        "lng": 50.9391
      },
      "crowd_size": "large",
      "event_types": [
        "chanting",
        "victory"
      ],
      "thumbnail": "https://img.youtube.com/vi/c-bMoCkuoTg/mqdefault.jpg",
      "url": "https://www.youtube.com/watch?v=c-bMoCkuoTg",
      "uploaded": "",
      "source": "Iran International"
    },
    {
      "id": "4U8TNh5v-v8",
      "title": "معترضان در گنبد کاووس به اعتراضات پیوستند",
      "title_english": "",
      "location": null,
      "crowd_size": "large",
      "event_types": [
        "protest"
      ],
      "thumbnail": "https://img.youtube.com/vi/4U8TNh5v-v8/mqdefault.jpg",
      "url": "https://www.youtube.com/watch?v=4U8TNh5v-v8",
      "uploaded": "",
      "source": "Iran International"
    },
    {
      "id": "FefIIwOwo9w",
      "title": "معترضان در بلوار کاشانی: آزادی آزادی ، آزادی",
      "title_english": "",
      "location": {
        "name_fa": "آزادی",
        "name_en": "Azadi Square",
        "city": "Tehran",
        "lat": 35.6997,
        "lng": 51.338
      },
      "crowd_size": "large",
      "event_types": [
        "protest"
      ],
      "thumbnail": "https://img.youtube.com/vi/FefIIwOwo9w/mqdefault.jpg",
      "url": "https://www.youtube.com/watch?v=FefIIwOwo9w",
      "uploaded": "",
      "source": "Iran International"
    },
    {
      "id": "kYxcAXsMw1g",
      "title": "آتش‌زدن خودروی نیروهای سرکوب در پل ستارخان",
      "title_english": "",
      "location": {
        "name_fa": "ستارخان",
        "name_en": "Sattarkhan",
        "city": "Tehran",
        "lat": 35.719,
        "lng": 51.365
      },
      "crowd_size": "large",
      "event_types": [
        "repression",
        "fire"
      ],
      "thumbnail": "https://img.youtube.com/vi/kYxcAXsMw1g/mqdefault.jpg",
      "url": "https://www.youtube.com/watch?v=kYxcAXsMw1g",
      "uploaded": "",
      "source": "Iran International"
    },
    {
      "id": "cM20CAD7EfQ",
      "title": "معترضان در شادآباد تهران شعار «جاوید شاه» دادند",
      "title_english": "",
      "location": {
        "name_fa": "تهران",
        "name_en": "Tehran",
        "city": "Tehran",
        "lat": 35.6892,
        "lng": 51.389
      },
      "crowd_size": "large",
      "event_types": [
        "chanting"
      ],
      "thumbnail": "https://img.youtube.com/vi/cM20CAD7EfQ/mqdefault.jpg",
      "url": "https://www.youtube.com/watch?v=cM20CAD7EfQ",
      "uploaded": "",
      "source": "Iran International"
    },
    {
      "id": "_jrTDwkhmXs",
      "title": "سقوط دیکتاتور از ذهن جامعه آغاز می‌شود",
      "title_english": "",
      "location": null,
      "crowd_size": "large",
      "event_types": [
        "victory"
      ],
      "thumbnail": "https://img.youtube.com/vi/_jrTDwkhmXs/mqdefault.jpg",
      "url": "https://www.youtube.com/watch?v=_jrTDwkhmXs",
      "uploaded": "",
      "source": "Iran International"
    },
    {
      "id": "LMqXIAtfAt8",
      "title": "معترضان در کرج: «خامنه‌ای قاتل، زهی خیال باطل»",
      "title_english": "",
      "location": {
        "name_fa": "کرج",
        "name_en": "Karaj",
        "city": "Karaj",
        "lat": 35.84,
        "lng": 50.9391
      },
      "crowd_size": "large",
      "event_types": [
        "protest"
      ],
      "thumbnail": "https://img.youtube.com/vi/LMqXIAtfAt8/mqdefault.jpg",
      "url": "https://www.youtube.com/watch?v=LMqXIAtfAt8",
      "uploaded": "",
      "source": "Iran International"
    },
    {
      "id": "kW8DSZF5YOk",
      "title": "فریاد «مرگ بر دیکتاتور» در محله شهناز تبریز",
      "title_english": "",
      "location": {
        "name_fa": "تبریز",
        "name_en": "Tabriz",
        "city": "Tabriz",
        "lat": 38.08,
        "lng": 46.2919
      },
      "crowd_size": "medium",
      "event_types": [
        "chanting"
      ],
      "thumbnail": "https://img.youtube.com/vi/kW8DSZF5YOk/mqdefault.jpg",
      "url": "https://www.youtube.com/watch?v=kW8DSZF5YOk",
      "uploaded": "",
      "source": "Iran International"
    },
    {
      "id": "fLoNEi9zkQY",
      "title": "معترضان در تبریز شعار «پهلوی بر می‌گرده» سر دادند",
      "title_english": "",
      "location": {
        "name_fa": "تبریز",
        "name_en": "Tabriz",
        "city": "Tabriz",
        "lat": 38.08,
        "lng": 46.2919
      },
      "crowd_size": "large",
      "event_types": [
        "chanting"
      ],
      "thumbnail": "https://img.youtube.com/vi/fLoNEi9zkQY/mqdefault.jpg",
      "url": "https://www.youtube.com/watch?v=fLoNEi9zkQY",
      "uploaded": "",
      "source": "Iran International"
    },
    {
      "id": "Q3j6L21IH2I",
      "title": "معترضان در خیابان ستارخان: پهلوی برمی‌گرده",
      "title_english": "",
      "location": {
        "name_fa": "ستارخان",
        "name_en": "Sattarkhan",
        "city": "Tehran",
        "lat": 35.719,
        "lng": 51.365
      },
      "crowd_size": "large",
      "event_types": [
        "protest"
      ],
      "thumbnail": "https://img.youtube.com/vi/Q3j6L21IH2I/mqdefault.jpg",
      "url": "https://www.youtube.com/watch?v=Q3j6L21IH2I",
      "uploaded": "",
      "source": "Iran International"
    },
    {
      "id": "JQExfjbW140",
      "title": "مردم زاهدان به اعتراضات پیوستند",
      "title_english": "",
      "location": {
        "name_fa": "زاهدان",
        "name_en": "Zahedan",
        "city": "Zahedan",
        "lat": 29.4963,
        "lng": 60.8629
      },
      "crowd_size": "large",
      "event_types": [
        "protest"
      ],
      "thumbnail": "https://img.youtube.com/vi/JQExfjbW140/mqdefault.jpg",
      "url": "https://www.youtube.com/watch?v=JQExfjbW140",
      "uploaded": "",
      "source": "Iran International"
    },
    {
      "id": "zwXBMpuoYkc",
      "title": "سیل معترضان در ونک",
      "title_english": "",
      "location": {
        "name_fa": "ونک",
        "name_en": "Vanak",
        "city": "Tehran",
        "lat": 35.757,
        "lng": 51.41
      },
      "crowd_size": "very_large",
      "event_types": [
        "victory"
      ],
      "thumbnail": "https://img.youtube.com/vi/zwXBMpuoYkc/mqdefault.jpg",
      "url": "https://www.youtube.com/watch?v=zwXBMpuoYkc",
      "uploaded": "",
      "source": "Iran International"
    },
    {
      "id": "IuEbcTqKIaE",
      "title": "فریاد «نترسید، نترسید، ما همه با هم هستیم» از تبریز",
      "title_english": "",
      "location": {
        "name_fa": "تبریز",
        "name_en": "Tabriz",
        "city": "Tabriz",
        "lat": 38.08,
        "lng": 46.2919
      },
      "crowd_size": "medium",
      "event_types": [
        "chanting"
      ],
      "thumbnail": "https://img.youtube.com/vi/IuEbcTqKIaE/mqdefault.jpg",
      "url": "https://www.youtube.com/watch?v=IuEbcTqKIaE",
      "uploaded": "",
      "source": "Iran International"
    },
    {
      "id": "oRVpAsW3n4I",
      "title": "معترضان اسلامشهر: جاوید شاه",
      "title_english": "",
      "location": null,
      "crowd_size": "large",
      "event_types": [
        "chanting"
      ],
      "thumbnail": "https://img.youtube.com/vi/oRVpAsW3n4I/mqdefault.jpg",
      "url": "https://www.youtube.com/watch?v=oRVpAsW3n4I",
      "uploaded": "",
      "source": "Iran International"
    },
    {
      "id": "OIiarQA8uVE",
      "title": "معترضان در هفت‌حوض تهران به خیابان آمدند",
      "title_english": "",
      "location": {
        "name_fa": "تهران",
        "name_en": "Tehran",
        "city": "Tehran",
        "lat": 35.6892,
        "lng": 51.389
      },
      "crowd_size": "large",
      "event_types": [
        "march"
      ],
      "thumbnail": "https://img.youtube.com/vi/OIiarQA8uVE/mqdefault.jpg",
      "url": "https://www.youtube.com/watch?v=OIiarQA8uVE",
      "uploaded": "",
      "source": "Iran International"
    },
    {
      "id": "U8byq4jqjeM",
      "title": "معترضان در کرج شعار «پهلوی بر می‌گرده» سر دادند",
      "title_english": "",
      "location": {
        "name_fa": "کرج",
        "name_en": "Karaj",
        "city": "Karaj",
        "lat": 35.84,
        "lng": 50.9391
      },
      "crowd_size": "large",
      "event_types": [
        "chanting"
      ],
      "thumbnail": "https://img.youtube.com/vi/U8byq4jqjeM/mqdefault.jpg",
      "url": "https://www.youtube.com/watch?v=U8byq4jqjeM",
      "uploaded": "",
      "source": "Iran International"
    },
    {
      "id": "p2Kxb_8-yNE",
      "title": "معترضان در اهواز شعار «مرگ بر خامنه‌ای و جاوید شاه» سر دادند",
      "title_english": "",
      "location": {
        "name_fa": "اهواز",
        "name_en": "Ahvaz",
        "city": "Ahvaz",
        "lat": 31.3183,
        "lng": 48.6706
      },
      "crowd_size": "large",
      "event_types": [
        "chanting"
      ],
      "thumbnail": "https://img.youtube.com/vi/p2Kxb_8-yNE/mqdefault.jpg",
      "url": "https://www.youtube.com/watch?v=p2Kxb_8-yNE",
      "uploaded": "",
      "source": "Iran International"
    },
    {
      "id": "7_8aKMrhFQ4",
      "title": "معترضان در ماهشهر با شعار «پهلوی بر می‌گرده» به خیابان آمدند",
      "title_english": "",
      "location": {
        "name_fa": "ماهشهر",
        "name_en": "Mahshahr",
        "city": "Mahshahr",
        "lat": 30.4586,
        "lng": 49.185
      },
      "crowd_size": "large",
      "event_types": [
        "march",
        "chanting"
      ],
      "thumbnail": "https://img.youtube.com/vi/7_8aKMrhFQ4/mqdefault.jpg",
      "url": "https://www.youtube.com/watch?v=7_8aKMrhFQ4",
      "uploaded": "",
      "source": "Iran International"
    },
    {
      "id": "_ZGGsNVTDU0",
      "title": "حضور گسترده معترضان در کرمان",
      "title_english": "",
      "location": {
        "name_fa": "کرمان",
        "name_en": "Kerman",
        "city": "Kerman",
        "lat": 30.2839,
        "lng": 57.0834
      },
      "crowd_size": "large",
      "event_types": [
        "protest"
      ],
      "thumbnail": "https://img.youtube.com/vi/_ZGGsNVTDU0/mqdefault.jpg",
      "url": "https://www.youtube.com/watch?v=_ZGGsNVTDU0",
      "uploaded": "",
      "source": "Iran International"
    },
    {
      "id": "JD5WQnDslu8",
      "title": "بستن چهارراه طالقانی و شعاردهی معترضان",
      "title_english": "",
      "location": null,
      "crowd_size": "large",
      "event_types": [
        "chanting"
      ],
      "thumbnail": "https://img.youtube.com/vi/JD5WQnDslu8/mqdefault.jpg",
      "url": "https://www.youtube.com/watch?v=JD5WQnDslu8",
      "uploaded": "",
      "source": "Iran International"
    },
    {
      "id": "LMZGxbjdFok",
      "title": "معترضان در رشت خیابان را بستند",
      "title_english": "",
      "location": {
        "name_fa": "رشت",
        "name_en": "Rasht",
        "city": "Rasht",
        "lat": 37.2808,
        "lng": 49.5832
      },
      "crowd_size": "large",
      "event_types": [
        "protest"
      ],
      "thumbnail": "https://img.youtube.com/vi/LMZGxbjdFok/mqdefault.jpg",
      "url": "https://www.youtube.com/watch?v=LMZGxbjdFok",
      "uploaded": "",
      "source": "Iran International"
    },
    {
      "id": "6xbq_-qO3C4",
      "title": "ایرانیان یکصدا و متحد به خیابان آمدند",
      "title_english": "",
      "location": {
        "name_fa": "ایران",
        "name_en": "Iran",
        "city": "Iran",
        "lat": 32.4279,
        "lng": 53.688
      },
      "crowd_size": "large",
      "event_types": [
        "march"
      ],
      "thumbnail": "https://img.youtube.com/vi/6xbq_-qO3C4/mqdefault.jpg",
      "url": "https://www.youtube.com/watch?v=6xbq_-qO3C4",
      "uploaded": "",
      "source": "Iran International"
    },
    {
      "id": "UQsaSn9zA_A",
      "title": "جمعیت گسترده معترضان در مشهد",
      "title_english": "",
      "location": {
        "name_fa": "مشهد",
        "name_en": "Mashhad",
        "city": "Mashhad",
        "lat": 36.2605,
        "lng": 59.6168
      },
      "crowd_size": "large",
      "event_types": [
        "protest"
      ],
      "thumbnail": "https://img.youtube.com/vi/UQsaSn9zA_A/mqdefault.jpg",
      "url": "https://www.youtube.com/watch?v=UQsaSn9zA_A",
      "uploaded": "",
      "source": "Iran International"
    },
    {
      "id": "JdA8yeHGYsI",
      "title": "معترضان در دامغان: پهلوی برمی‌گرده",
      "title_english": "",
      "location": null,
      "crowd_size": "large",
      "event_types": [
        "protest"
      ],
      "thumbnail": "https://img.youtube.com/vi/JdA8yeHGYsI/mqdefault.jpg",
      "url": "https://www.youtube.com/watch?v=JdA8yeHGYsI",
      "uploaded": "",
      "source": "Iran International"
    },
    {
      "id": "cEzmN__QWyQ",
      "title": "معترضان در قلهک تهران: پهلوی برمیگرده",
      "title_english": "",
      "location": {
        "name_fa": "تهران",
        "name_en": "Tehran",
        "city": "Tehran",
        "lat": 35.6892,
        "lng": 51.389
      },
      "crowd_size": "large",
      "event_types": [
        "protest"
      ],
      "thumbnail": "https://img.youtube.com/vi/cEzmN__QWyQ/mqdefault.jpg",
      "url": "https://www.youtube.com/watch?v=cEzmN__QWyQ",
      "uploaded": "",
      "source": "Iran International"
    },
    {
      "id": "KmIbE4kMgXg",
      "title": "فریاد «مرگ بر خامنه‌ای» در کرمانشاه",
      "title_english": "",
      "location": {
        "name_fa": "کرمانشاه",
        "name_en": "Kermanshah",
        "city": "Kermanshah",
        "lat": 34.3142,
        "lng": 47.065
      },
      "crowd_size": "medium",
      "event_types": [
        "chanting"
      ],
      "thumbnail": "https://img.youtube.com/vi/KmIbE4kMgXg/mqdefault.jpg",
      "url": "https://www.youtube.com/watch?v=KmIbE4kMgXg",
      "uploaded": "",
      "source": "Iran International"
    },
    {
      "id": "Y01G5vP0mhk",
      "title": "معترضان در گوهردشت کرج به خیابان آمدند",
      "title_english": "",
      "location": {
        "name_fa": "کرج",
        "name_en": "Karaj",
        "city": "Karaj",
        "lat": 35.84,
        "lng": 50.9391
      },
      "crowd_size": "large",
      "event_types": [
        "march"
      ],
      "thumbnail": "https://img.youtube.com/vi/Y01G5vP0mhk/mqdefault.jpg",
      "url": "https://www.youtube.com/watch?v=Y01G5vP0mhk",
      "uploaded": "",
      "source": "Iran International"
    },
    {
      "id": "UE6QvXfajG4",
      "title": "معترضان در شهرک ولیعصر: پهلوی برمی‌گرده",
      "title_english": "",
      "location": {
        "name_fa": "ولیعصر",
        "name_en": "Valiasr",
        "city": "Tehran",
        "lat": 35.715,
        "lng": 51.409
      },
      "crowd_size": "large",
      "event_types": [
        "protest"
      ],
      "thumbnail": "https://img.youtube.com/vi/UE6QvXfajG4/mqdefault.jpg",
      "url": "https://www.youtube.com/watch?v=UE6QvXfajG4",
      "uploaded": "",
      "source": "Iran International"
    },
    {
      "id": "OKzLy8HTsW4",
      "title": "معترضان در تهران: پهلوی برمی‌گرده",
      "title_english": "",
      "location": {
        "name_fa": "تهران",
        "name_en": "Tehran",
        "city": "Tehran",
        "lat": 35.6892,
        "lng": 51.389
      },
      "crowd_size": "large",
      "event_types": [
        "protest"
      ],
      "thumbnail": "https://img.youtube.com/vi/OKzLy8HTsW4/mqdefault.jpg",
      "url": "https://www.youtube.com/watch?v=OKzLy8HTsW4",
      "uploaded": "",
      "source": "Iran International"
    },
    {
      "id": "SiIQ3lCZpgc",
      "title": "فریاد «جاوید شاه» در پره‌سر گیلان",
      "title_english": "",
      "location": null,
      "crowd_size": "medium",
      "event_types": [
        "chanting"
      ],
      "thumbnail": "https://img.youtube.com/vi/SiIQ3lCZpgc/mqdefault.jpg",
      "url": "https://www.youtube.com/watch?v=SiIQ3lCZpgc",
      "uploaded": "",
      "source": "Iran International"
    },
    {
      "id": "cP0XR0DZMrg",
      "title": "معترضان در الیگودرز به خیابان آمدند",
      "title_english": "",
      "location": null,
      "crowd_size": "large",
      "event_types": [
        "march"
      ],
      "thumbnail": "https://img.youtube.com/vi/cP0XR0DZMrg/mqdefault.jpg",
      "url": "https://www.youtube.com/watch?v=cP0XR0DZMrg",
      "uploaded": "",
      "source": "Iran International"
    },
    {
      "id": "HbbcAYNa_14",
      "title": "معترضان در اراک به خیابان آمدند",
      "title_english": "",
      "location": {
        "name_fa": "اراک",
        "name_en": "Arak",
        "city": "Arak",
        "lat": 34.0917,
        "lng": 49.6892
      },
      "crowd_size": "large",
      "event_types": [
        "march"
      ],
      "thumbnail": "https://img.youtube.com/vi/HbbcAYNa_14/mqdefault.jpg",
      "url": "https://www.youtube.com/watch?v=HbbcAYNa_14",
      "uploaded": "",
      "source": "Iran International"
    },
    {
      "id": "v8JsVW-DY-A",
      "title": "فریاد «پهلوی برمی‌گرده» در هروی تهران",
      "title_english": "",
      "location": {
        "name_fa": "تهران",
        "name_en": "Tehran",
        "city": "Tehran",
        "lat": 35.6892,
        "lng": 51.389
      },
      "crowd_size": "medium",
      "event_types": [
        "chanting"
      ],
      "thumbnail": "https://img.youtube.com/vi/v8JsVW-DY-A/mqdefault.jpg",
      "url": "https://www.youtube.com/watch?v=v8JsVW-DY-A",
      "uploaded": "",
      "source": "Iran International"
    },
    {
      "id": "24nB-vlikUE",
      "title": "افزایش شمار سرکوبگران در گلشهر کرج",
      "title_english": "",
      "location": {
        "name_fa": "کرج",
        "name_en": "Karaj",
        "city": "Karaj",
        "lat": 35.84,
        "lng": 50.9391
      },
      "crowd_size": "large",
      "event_types": [
        "repression"
      ],
      "thumbnail": "https://img.youtube.com/vi/24nB-vlikUE/mqdefault.jpg",
      "url": "https://www.youtube.com/watch?v=24nB-vlikUE",
      "uploaded": "",
      "source": "Iran International"
    },
    {
      "id": "K9SYoXMd9Uw",
      "title": "معترضان گلشهر: جاوید شاه",
      "title_english": "",
      "location": null,
      "crowd_size": "large",
      "event_types": [
        "chanting"
      ],
      "thumbnail": "https://img.youtube.com/vi/K9SYoXMd9Uw/mqdefault.jpg",
      "url": "https://www.youtube.com/watch?v=K9SYoXMd9Uw",
      "uploaded": "",
      "source": "Iran International"
    },
    {
      "id": "b2LQCLEyZlA",
      "title": "معترضان در کنگاور: پهلوی برمی‌گرده",
      "title_english": "",
      "location": null,
      "crowd_size": "large",
      "event_types": [
        "protest"
      ],
      "thumbnail": "https://img.youtube.com/vi/b2LQCLEyZlA/mqdefault.jpg",
      "url": "https://www.youtube.com/watch?v=b2LQCLEyZlA",
      "uploaded": "",
      "source": "Iran International"
    },
    {
      "id": "epFA8Eu-GAY",
      "title": "معترضی در تهرانسر: منتظر ساعت ۸ شب هستم تا به اعتراضات بپیوندم",
      "title_english": "",
      "location": {
        "name_fa": "تهران",
        "name_en": "Tehran",
        "city": "Tehran",
        "lat": 35.6892,
        "lng": 51.389
      },
      "crowd_size": "large",
      "event_types": [
        "protest"
      ],
      "thumbnail": "https://img.youtube.com/vi/epFA8Eu-GAY/mqdefault.jpg",
      "url": "https://www.youtube.com/watch?v=epFA8Eu-GAY",
      "uploaded": "",
      "source": "Iran International"
    },
    {
      "id": "w5M53g1GBZs",
      "title": "ادامه اعتصاب کسبه در کرمان",
      "title_english": "",
      "location": {
        "name_fa": "کرمان",
        "name_en": "Kerman",
        "city": "Kerman",
        "lat": 30.2839,
        "lng": 57.0834
      },
      "crowd_size": "large",
      "event_types": [
        "strike"
      ],
      "thumbnail": "https://img.youtube.com/vi/w5M53g1GBZs/mqdefault.jpg",
      "url": "https://www.youtube.com/watch?v=w5M53g1GBZs",
      "uploaded": "",
      "source": "Iran International"
    },
    {
      "id": "gjofX7E2SJo",
      "title": "معترضان در قروه: مرگ بر خامنه‌ای",
      "title_english": "",
      "location": null,
      "crowd_size": "large",
      "event_types": [
        "chanting"
      ],
      "thumbnail": "https://img.youtube.com/vi/gjofX7E2SJo/mqdefault.jpg",
      "url": "https://www.youtube.com/watch?v=gjofX7E2SJo",
      "uploaded": "",
      "source": "Iran International"
    },
    {
      "id": "iJzdhVKLkwU",
      "title": "یک شهروند: مردم در اراک راهی اعتراضات شدند",
      "title_english": "",
      "location": {
        "name_fa": "اراک",
        "name_en": "Arak",
        "city": "Arak",
        "lat": 34.0917,
        "lng": 49.6892
      },
      "crowd_size": "large",
      "event_types": [
        "protest"
      ],
      "thumbnail": "https://img.youtube.com/vi/iJzdhVKLkwU/mqdefault.jpg",
      "url": "https://www.youtube.com/watch?v=iJzdhVKLkwU",
      "uploaded": "",
      "source": "Iran International"
    },
    {
      "id": "0Dtrk5Xia1U",
      "title": "آثار درگیری خیابانی در کرمانشاه",
      "title_english": "",
      "location": {
        "name_fa": "کرمانشاه",
        "name_en": "Kermanshah",
        "city": "Kermanshah",
        "lat": 34.3142,
        "lng": 47.065
      },
      "crowd_size": "large",
      "event_types": [
        "protest"
      ],
      "thumbnail": "https://img.youtube.com/vi/0Dtrk5Xia1U/mqdefault.jpg",
      "url": "https://www.youtube.com/watch?v=0Dtrk5Xia1U",
      "uploaded": "",
      "source": "Iran International"
    },
    {
      "id": "aEjHTKYAXu8",
      "title": "تیراندازی نیروهای حکومتی در اعتراضات آستانه اشرفیه",
      "title_english": "",
      "location": null,
      "crowd_size": "large",
      "event_types": [
        "repression"
      ],
      "thumbnail": "https://img.youtube.com/vi/aEjHTKYAXu8/mqdefault.jpg",
      "url": "https://www.youtube.com/watch?v=aEjHTKYAXu8",
      "uploaded": "",
      "source": "Iran International"
    },
    {
      "id": "FqNzWW24U78",
      "title": "معترضان در آستانه اشرفیه: جانم فدای ایران",
      "title_english": "",
      "location": {
        "name_fa": "ایران",
        "name_en": "Iran",
        "city": "Iran",
        "lat": 32.4279,
        "lng": 53.688
      },
      "crowd_size": "large",
      "event_types": [
        "protest"
      ],
      "thumbnail": "https://img.youtube.com/vi/FqNzWW24U78/mqdefault.jpg",
      "url": "https://www.youtube.com/watch?v=FqNzWW24U78",
      "uploaded": "",
      "source": "Iran International"
    },
    {
      "id": "HuKIdZFrWh8",
      "title": "بازار بیجار در اعتصاب",
      "title_english": "",
      "location": {
        "name_fa": "بازار",
        "name_en": "Grand Bazaar",
        "city": "Tehran",
        "lat": 35.672,
        "lng": 51.422
      },
      "crowd_size": "large",
      "event_types": [
        "strike"
      ],
      "thumbnail": "https://img.youtube.com/vi/HuKIdZFrWh8/mqdefault.jpg",
      "url": "https://www.youtube.com/watch?v=HuKIdZFrWh8",
      "uploaded": "",
      "source": "Iran International"
    },
    {
      "id": "UmXZFHOB3EE",
      "title": "اعتصاب کسبه در روانسر",
      "title_english": "",
      "location": null,
      "crowd_size": "large",
      "event_types": [
        "strike"
      ],
      "thumbnail": "https://img.youtube.com/vi/UmXZFHOB3EE/mqdefault.jpg",
      "url": "https://www.youtube.com/watch?v=UmXZFHOB3EE",
      "uploaded": "",
      "source": "Iran International"
    },
    {
      "id": "M8fmbLueZyw",
      "title": "اعتصاب بازاریان در شهرضا",
      "title_english": "",
      "location": {
        "name_fa": "بازار",
        "name_en": "Grand Bazaar",
        "city": "Tehran",
        "lat": 35.672,
        "lng": 51.422
      },
      "crowd_size": "large",
      "event_types": [
        "strike"
      ],
      "thumbnail": "https://img.youtube.com/vi/M8fmbLueZyw/mqdefault.jpg",
      "url": "https://www.youtube.com/watch?v=M8fmbLueZyw",
      "uploaded": "",
      "source": "Iran International"
    },
    {
      "id": "mX3MiXDDB3k",
      "title": "اعتصاب و اعتراض سراسری در اسلام‌آباد غرب",
      "title_english": "",
      "location": null,
      "crowd_size": "large",
      "event_types": [
        "strike"
      ],
      "thumbnail": "https://img.youtube.com/vi/mX3MiXDDB3k/mqdefault.jpg",
      "url": "https://www.youtube.com/watch?v=mX3MiXDDB3k",
      "uploaded": "",
      "source": "Iran International"
    },
    {
      "id": "3dHqXj3dTKA",
      "title": "اتحاد کاسبان آبیک برای اعتصاب",
      "title_english": "",
      "location": null,
      "crowd_size": "large",
      "event_types": [
        "strike"
      ],
      "thumbnail": "https://img.youtube.com/vi/3dHqXj3dTKA/mqdefault.jpg",
      "url": "https://www.youtube.com/watch?v=3dHqXj3dTKA",
      "uploaded": "",
      "source": "Iran International"
    },
    {
      "id": "TbbV3TiyoLQ",
      "title": "شهروند اهل سنندج:شهرهای بزرگ اعتصاب‌ها را منسجم ادامه دهند",
      "title_english": "",
      "location": {
        "name_fa": "سنندج",
        "name_en": "Sanandaj",
        "city": "Sanandaj",
        "lat": 35.3219,
        "lng": 46.9862
      },
      "crowd_size": "large",
      "event_types": [
        "strike"
      ],
      "thumbnail": "https://img.youtube.com/vi/TbbV3TiyoLQ/mqdefault.jpg",
      "url": "https://www.youtube.com/watch?v=TbbV3TiyoLQ",
      "uploaded": "",
      "source": "Iran International"
    },
    {
      "id": "o-Ziu9OzkdQ",
      "title": "یک شهروند: تعداد سرکوبگران در کرج کم شده است",
      "title_english": "",
      "location": {
        "name_fa": "کرج",
        "name_en": "Karaj",
        "city": "Karaj",
        "lat": 35.84,
        "lng": 50.9391
      },
      "crowd_size": "large",
      "event_types": [
        "repression"
      ],
      "thumbnail": "https://img.youtube.com/vi/o-Ziu9OzkdQ/mqdefault.jpg",
      "url": "https://www.youtube.com/watch?v=o-Ziu9OzkdQ",
      "uploaded": "",
      "source": "Iran International"
    },
    {
      "id": "rpnPHjwxKfk",
      "title": "فریاد «جاوید شاه» ایرانیان در هلند",
      "title_english": "",
      "location": {
        "name_fa": "ایران",
        "name_en": "Iran",
        "city": "Iran",
        "lat": 32.4279,
        "lng": 53.688
      },
      "crowd_size": "medium",
      "event_types": [
        "chanting"
      ],
      "thumbnail": "https://img.youtube.com/vi/rpnPHjwxKfk/mqdefault.jpg",
      "url": "https://www.youtube.com/watch?v=rpnPHjwxKfk",
      "uploaded": "",
      "source": "Iran International"
    },
    {
      "id": "ySwM0Ndyk8w",
      "title": "اعتصاب کسبه در سبزوار",
      "title_english": "",
      "location": null,
      "crowd_size": "large",
      "event_types": [
        "strike"
      ],
      "thumbnail": "https://img.youtube.com/vi/ySwM0Ndyk8w/mqdefault.jpg",
      "url": "https://www.youtube.com/watch?v=ySwM0Ndyk8w",
      "uploaded": "",
      "source": "Iran International"
    },
    {
      "id": "DCdeqGvp4O8",
      "title": "معترضی در اصفهان: مردم در خانه‌هایتان نمانید",
      "title_english": "",
      "location": {
        "name_fa": "اصفهان",
        "name_en": "Isfahan",
        "city": "Isfahan",
        "lat": 32.6539,
        "lng": 51.666
      },
      "crowd_size": "large",
      "event_types": [
        "protest"
      ],
      "thumbnail": "https://img.youtube.com/vi/DCdeqGvp4O8/mqdefault.jpg",
      "url": "https://www.youtube.com/watch?v=DCdeqGvp4O8",
      "uploaded": "",
      "source": "Iran International"
    },
    {
      "id": "DxCz8oL1sQI",
      "title": "فریاد «جاوید شاه» معترضان در کلاچای",
      "title_english": "",
      "location": null,
      "crowd_size": "large",
      "event_types": [
        "chanting"
      ],
      "thumbnail": "https://img.youtube.com/vi/DxCz8oL1sQI/mqdefault.jpg",
      "url": "https://www.youtube.com/watch?v=DxCz8oL1sQI",
      "uploaded": "",
      "source": "Iran International"
    },
    {
      "id": "IVHqixEZlZE",
      "title": "مغازه‌داران در فولادشهر به اعتصاب پیوستند",
      "title_english": "",
      "location": null,
      "crowd_size": "large",
      "event_types": [
        "strike"
      ],
      "thumbnail": "https://img.youtube.com/vi/IVHqixEZlZE/mqdefault.jpg",
      "url": "https://www.youtube.com/watch?v=IVHqixEZlZE",
      "uploaded": "",
      "source": "Iran International"
    },
    {
      "id": "BBfVkSs76yk",
      "title": "فریاد «جاوید شاه» زیر شلیک گاز اشک‌آور در محله تهرانسر",
      "title_english": "",
      "location": {
        "name_fa": "تهران",
        "name_en": "Tehran",
        "city": "Tehran",
        "lat": 35.6892,
        "lng": 51.389
      },
      "crowd_size": "medium",
      "event_types": [
        "repression",
        "chanting"
      ],
      "thumbnail": "https://img.youtube.com/vi/BBfVkSs76yk/mqdefault.jpg",
      "url": "https://www.youtube.com/watch?v=BBfVkSs76yk",
      "uploaded": "",
      "source": "Iran International"
    },
    {
      "id": "ccYtRZyVAeQ",
      "title": "حضور نیروهای سرکوب حکومت با لباس‌های ویژه گازهای خطرناک در سبزوار",
      "title_english": "",
      "location": null,
      "crowd_size": "large",
      "event_types": [
        "repression"
      ],
      "thumbnail": "https://img.youtube.com/vi/ccYtRZyVAeQ/mqdefault.jpg",
      "url": "https://www.youtube.com/watch?v=ccYtRZyVAeQ",
      "uploaded": "",
      "source": "Iran International"
    },
    {
      "id": "0nhvhtUn4Z4",
      "title": "مردم در فریمان علیه جمهوری اسلامی به خیابان‌ها آمدند",
      "title_english": "",
      "location": null,
      "crowd_size": "large",
      "event_types": [
        "protest"
      ],
      "thumbnail": "https://img.youtube.com/vi/0nhvhtUn4Z4/mqdefault.jpg",
      "url": "https://www.youtube.com/watch?v=0nhvhtUn4Z4",
      "uploaded": "",
      "source": "Iran International"
    },
    {
      "id": "-cIueWpxI9o",
      "title": "سناتور اسکات از معترضان ایرانی که خواهان دموکراسی هستند، حمایت می‌کند",
      "title_english": "",
      "location": {
        "name_fa": "ایران",
        "name_en": "Iran",
        "city": "Iran",
        "lat": 32.4279,
        "lng": 53.688
      },
      "crowd_size": "large",
      "event_types": [
        "protest"
      ],
      "thumbnail": "https://img.youtube.com/vi/-cIueWpxI9o/mqdefault.jpg",
      "url": "https://www.youtube.com/watch?v=-cIueWpxI9o",
      "uploaded": "",
      "source": "Iran International"
    },
    {
      "id": "gGcVHuIy3gI",
      "title": "فریاد «جاوید شاه» در خشکبیجار گیلان",
      "title_english": "",
      "location": null,
      "crowd_size": "medium",
      "event_types": [
        "chanting"
      ],
      "thumbnail": "https://img.youtube.com/vi/gGcVHuIy3gI/mqdefault.jpg",
      "url": "https://www.youtube.com/watch?v=gGcVHuIy3gI",
      "uploaded": "",
      "source": "Iran International"
    },
    {
      "id": "Rn2Y881tKA0",
      "title": "مردم معترض و فریاد «جاوید شاه» در خشکبیجار",
      "title_english": "",
      "location": null,
      "crowd_size": "medium",
      "event_types": [
        "chanting"
      ],
      "thumbnail": "https://img.youtube.com/vi/Rn2Y881tKA0/mqdefault.jpg",
      "url": "https://www.youtube.com/watch?v=Rn2Y881tKA0",
      "uploaded": "",
      "source": "Iran International"
    },
    {
      "id": "59fBr1pGKuc",
      "title": "بی‌اعتنایی مردم معترض به التماس‌های دولت پزشکیان",
      "title_english": "",
      "location": null,
      "crowd_size": "large",
      "event_types": [
        "protest"
      ],
      "thumbnail": "https://img.youtube.com/vi/59fBr1pGKuc/mqdefault.jpg",
      "url": "https://www.youtube.com/watch?v=59fBr1pGKuc",
      "uploaded": "",
      "source": "Iran International"
    },
    {
      "id": "OQLb7cLph4A",
      "title": "پیام معترضان آبدانانِ ایلام، در فروشگاه افق کوروش",
      "title_english": "",
      "location": {
        "name_fa": "ایلام",
        "name_en": "Ilam",
        "city": "Ilam",
        "lat": 33.6374,
        "lng": 46.4227
      },
      "crowd_size": "large",
      "event_types": [
        "protest"
      ],
      "thumbnail": "https://img.youtube.com/vi/OQLb7cLph4A/mqdefault.jpg",
      "url": "https://www.youtube.com/watch?v=OQLb7cLph4A",
      "uploaded": "",
      "source": "Iran International"
    },
    {
      "id": "hsWaB1-huAQ",
      "title": "غلبه روحی معترضان بر نیروی سرکوب",
      "title_english": "",
      "location": null,
      "crowd_size": "large",
      "event_types": [
        "repression"
      ],
      "thumbnail": "https://img.youtube.com/vi/hsWaB1-huAQ/mqdefault.jpg",
      "url": "https://www.youtube.com/watch?v=hsWaB1-huAQ",
      "uploaded": "",
      "source": "Iran International"
    },
    {
      "id": "eG7GLipHTfc",
      "title": "«دیگه نمیشه اعتراضات مردم را جمع کرد»",
      "title_english": "",
      "location": null,
      "crowd_size": "large",
      "event_types": [
        "protest"
      ],
      "thumbnail": "https://img.youtube.com/vi/eG7GLipHTfc/mqdefault.jpg",
      "url": "https://www.youtube.com/watch?v=eG7GLipHTfc",
      "uploaded": "",
      "source": "Iran International"
    },
    {
      "id": "wrWepMtTURk",
      "title": "اعتصاب؛ بحران برای حکومت شانس پیروزی برای مردم",
      "title_english": "",
      "location": null,
      "crowd_size": "large",
      "event_types": [
        "strike"
      ],
      "thumbnail": "https://img.youtube.com/vi/wrWepMtTURk/mqdefault.jpg",
      "url": "https://www.youtube.com/watch?v=wrWepMtTURk",
      "uploaded": "",
      "source": "Iran International"
    },
    {
      "id": "_xyeWCX1pMs",
      "title": "فریاد مردم در آبادان: ایرانی داد بزن، حقتو فریاد بزن",
      "title_english": "",
      "location": {
        "name_fa": "آبادان",
        "name_en": "Abadan",
        "city": "Abadan",
        "lat": 30.3392,
        "lng": 48.3043
      },
      "crowd_size": "medium",
      "event_types": [
        "chanting"
      ],
      "thumbnail": "https://img.youtube.com/vi/_xyeWCX1pMs/mqdefault.jpg",
      "url": "https://www.youtube.com/watch?v=_xyeWCX1pMs",
      "uploaded": "",
      "source": "Iran International"
    },
    {
      "id": "Tl-l-Xr7jhs",
      "title": "تظاهرات مردم در فیروزکوه در حمایت از شاهزاده رضا پهلوی",
      "title_english": "",
      "location": null,
      "crowd_size": "large",
      "event_types": [
        "march"
      ],
      "thumbnail": "https://img.youtube.com/vi/Tl-l-Xr7jhs/mqdefault.jpg",
      "url": "https://www.youtube.com/watch?v=Tl-l-Xr7jhs",
      "uploaded": "",
      "source": "Iran International"
    },
    {
      "id": "4sWdietP1ms",
      "title": "شبه نظامیان عراقی، ابزار سرکوب در ایران",
      "title_english": "",
      "location": {
        "name_fa": "ایران",
        "name_en": "Iran",
        "city": "Iran",
        "lat": 32.4279,
        "lng": 53.688
      },
      "crowd_size": "large",
      "event_types": [
        "repression"
      ],
      "thumbnail": "https://img.youtube.com/vi/4sWdietP1ms/mqdefault.jpg",
      "url": "https://www.youtube.com/watch?v=4sWdietP1ms",
      "uploaded": "",
      "source": "Iran International"
    }
  ]
}